[
    {
        "Altitude(m)": 566500.4641377267,
        "Argument of Periapsis(deg)": 0.0,
        "Eccentricity": 0.0,
        "Inclination(deg)": 97.0,
        "Latitude(deg)": 24.658215646901127,
        "Longitude(deg)": 83.24426656347863,
        "Mean Anomaly(deg)": 155.1724,
        "RAAN(deg)": 0.0,
        "Satellite Name": "Starlink Shell 3 1609",
        "Satellite Number": 1609,
        "Semi-Major Axis(m)": 6938478.169268562,
        "Time(s)": 0
    },
    {
        "Altitude(m)": 566426.3176203917,
        "Argument of Periapsis(deg)": -0.0003965466804030246,
        "Eccentricity": 0.0,
        "Inclination(deg)": 97.0,
        "Latitude(deg)": 24.03557466373477,
        "Longitude(deg)": 83.11084762381111,
        "Mean Anomaly(deg)": 155.79787619770508,
        "RAAN(deg)": 0.00010433427400896087,
        "Satellite Name": "Starlink Shell 3 1609",
        "Satellite Number": 1609,
        "Semi-Major Axis(m)": 6938478.169268562,
        "Time(s)": 10
    },
    {
        "Altitude(m)": 566355.3843586515,
        "Argument of Periapsis(deg)": -0.0007930933608060492,
        "Eccentricity": 0.0,
        "Inclination(deg)": 97.0,
        "Latitude(deg)": 23.41282861115868,
        "Longitude(deg)": 82.97830633817586,
        "Mean Anomaly(deg)": 156.42335239541012,
        "RAAN(deg)": 0.00020866854801792175,
        "Satellite Name": "Starlink Shell 3 1609",
        "Satellite Number": 1609,
        "Semi-Major Axis(m)": 6938478.169268562,
        "Time(s)": 20
    },
    {
        "Altitude(m)": 566287.7253373092,
        "Argument of Periapsis(deg)": -0.001189640041209074,
        "Eccentricity": 0.0,
        "Inclination(deg)": 97.0,
        "Latitude(deg)": 22.789980873746135,
        "Longitude(deg)": 82.84660910145753,
        "Mean Anomaly(deg)": 157.04882859311516,
        "RAAN(deg)": 0.0003130028220268826,
        "Satellite Name": "Starlink Shell 3 1609",
        "Satellite Number": 1609,
        "Semi-Major Axis(m)": 6938478.169268562,
        "Time(s)": 30
    },
    {
        "Altitude(m)": 566223.4000996845,
        "Argument of Periapsis(deg)": -0.0015861867216120985,
        "Eccentricity": 0.0,
        "Inclination(deg)": 97.0,
        "Latitude(deg)": 22.167034803917527,
        "Longitude(deg)": 82.71572381414383,
        "Mean Anomaly(deg)": 157.6743047908202,
        "RAAN(deg)": 0.0004173370960358435,
        "Satellite Name": "Starlink Shell 3 1609",
        "Satellite Number": 1609,
        "Semi-Major Axis(m)": 6938478.169268562,
        "Time(s)": 40
    },
    {
        "Altitude(m)": 566162.4667146829,
        "Argument of Periapsis(deg)": -0.0019827334020151234,
        "Eccentricity": 0.0,
        "Inclination(deg)": 97.0,
        "Latitude(deg)": 21.543993724425615,
        "Longitude(deg)": 82.58561882335454,
        "Mean Anomaly(deg)": 158.29978098852524,
        "RAAN(deg)": 0.0005216713700448044,
        "Satellite Name": "Starlink Shell 3 1609",
        "Satellite Number": 1609,
        "Semi-Major Axis(m)": 6938478.169268562,
        "Time(s)": 50
    },
    {
        "Altitude(m)": 566104.981744587,
        "Argument of Periapsis(deg)": -0.002379280082418148,
        "Eccentricity": 0.0,
        "Inclination(deg)": 97.0,
        "Latitude(deg)": 20.920860930669757,
        "Longitude(deg)": 82.4562633792329,
        "Mean Anomaly(deg)": 158.92525718623028,
        "RAAN(deg)": 0.0006260056440537652,
        "Satellite Name": "Starlink Shell 3 1609",
        "Satellite Number": 1609,
        "Semi-Major Axis(m)": 6938478.169268562,
        "Time(s)": 60
    },
    {
        "Altitude(m)": 566051.0002135135,
        "Argument of Periapsis(deg)": -0.002775826762821173,
        "Eccentricity": 0.0,
        "Inclination(deg)": 97.0,
        "Latitude(deg)": 20.29763969284925,
        "Longitude(deg)": 82.32762809366626,
        "Mean Anomaly(deg)": 159.55073338393532,
        "RAAN(deg)": 0.0007303399180627261,
        "Satellite Name": "Starlink Shell 3 1609",
        "Satellite Number": 1609,
        "Semi-Major Axis(m)": 6938478.169268562,
        "Time(s)": 70
    },
    {
        "Altitude(m)": 566000.5755766603,
        "Argument of Periapsis(deg)": -0.003172373443224197,
        "Eccentricity": 0.0,
        "Inclination(deg)": 97.0,
        "Latitude(deg)": 19.674333257964214,
        "Longitude(deg)": 82.19968388831322,
        "Mean Anomaly(deg)": 160.17620958164036,
        "RAAN(deg)": 0.000834674192071687,
        "Satellite Name": "Starlink Shell 3 1609",
        "Satellite Number": 1609,
        "Semi-Major Axis(m)": 6938478.169268562,
        "Time(s)": 80
    },
    {
        "Altitude(m)": 565953.7596902802,
        "Argument of Periapsis(deg)": -0.0035689201236272223,
        "Eccentricity": 0.0,
        "Inclination(deg)": 97.0,
        "Latitude(deg)": 19.050944851674757,
        "Longitude(deg)": 82.07240245754596,
        "Mean Anomaly(deg)": 160.8016857793454,
        "RAAN(deg)": 0.0009390084660806479,
        "Satellite Name": "Starlink Shell 3 1609",
        "Satellite Number": 1609,
        "Semi-Major Axis(m)": 6938478.169268562,
        "Time(s)": 90
    },
    {
        "Altitude(m)": 565910.6027824027,
        "Argument of Periapsis(deg)": -0.003965466804030247,
        "Eccentricity": 0.0,
        "Inclination(deg)": 97.0,
        "Latitude(deg)": 18.42747768002614,
        "Longitude(deg)": 81.94575673330559,
        "Mean Anomaly(deg)": 161.42716197705045,
        "RAAN(deg)": 0.0010433427400896088,
        "Satellite Name": "Starlink Shell 3 1609",
        "Satellite Number": 1609,
        "Semi-Major Axis(m)": 6938478.169268562,
        "Time(s)": 100
    },
    {
        "Altitude(m)": 565871.1534243968,
        "Argument of Periapsis(deg)": -0.004362013484433271,
        "Eccentricity": 0.0,
        "Inclination(deg)": 97.0,
        "Latitude(deg)": 17.80393493104683,
        "Longitude(deg)": 81.81971983887289,
        "Mean Anomaly(deg)": 162.05263817475551,
        "RAAN(deg)": 0.0011476770140985695,
        "Satellite Name": "Starlink Shell 3 1609",
        "Satellite Number": 1609,
        "Semi-Major Axis(m)": 6938478.169268562,
        "Time(s)": 110
    },
    {
        "Altitude(m)": 565835.4585032739,
        "Argument of Periapsis(deg)": -0.004758560164836296,
        "Eccentricity": 0.0,
        "Inclination(deg)": 97.0,
        "Latitude(deg)": 17.180319776229446,
        "Longitude(deg)": 81.69426555719124,
        "Mean Anomaly(deg)": 162.67811437246056,
        "RAAN(deg)": 0.0012520112881075304,
        "Satellite Name": "Starlink Shell 3 1609",
        "Satellite Number": 1609,
        "Semi-Major Axis(m)": 6938478.169268562,
        "Time(s)": 120
    },
    {
        "Altitude(m)": 565803.5631948665,
        "Argument of Periapsis(deg)": -0.005155106845239321,
        "Eccentricity": 0.0,
        "Inclination(deg)": 97.0,
        "Latitude(deg)": 16.55663537189914,
        "Longitude(deg)": 81.56936880075946,
        "Mean Anomaly(deg)": 163.3035905701656,
        "RAAN(deg)": 0.0013563455621164913,
        "Satellite Name": "Starlink Shell 3 1609",
        "Satellite Number": 1609,
        "Semi-Major Axis(m)": 6938478.169268562,
        "Time(s)": 130
    },
    {
        "Altitude(m)": 565775.5109377904,
        "Argument of Periapsis(deg)": -0.005551653525642346,
        "Eccentricity": 0.0,
        "Inclination(deg)": 97.0,
        "Latitude(deg)": 15.932884860477142,
        "Longitude(deg)": 81.4450045701216,
        "Mean Anomaly(deg)": 163.92906676787064,
        "RAAN(deg)": 0.0014606798361254522,
        "Satellite Name": "Starlink Shell 3 1609",
        "Satellite Number": 1609,
        "Semi-Major Axis(m)": 6938478.169268562,
        "Time(s)": 140
    },
    {
        "Altitude(m)": 565751.3434083136,
        "Argument of Periapsis(deg)": -0.005948200206045371,
        "Eccentricity": 0.0,
        "Inclination(deg)": 97.0,
        "Latitude(deg)": 15.309071371646164,
        "Longitude(deg)": 81.3211484266077,
        "Mean Anomaly(deg)": 164.55454296557568,
        "RAAN(deg)": 0.0015650141101344129,
        "Satellite Name": "Starlink Shell 3 1609",
        "Satellite Number": 1609,
        "Semi-Major Axis(m)": 6938478.169268562,
        "Time(s)": 150
    },
    {
        "Altitude(m)": 565731.1004960227,
        "Argument of Periapsis(deg)": -0.006344746886448394,
        "Eccentricity": 0.0,
        "Inclination(deg)": 97.0,
        "Latitude(deg)": 14.685198023422828,
        "Longitude(deg)": 81.19777696636328,
        "Mean Anomaly(deg)": 165.18001916328072,
        "RAAN(deg)": 0.001669348384143374,
        "Satellite Name": "Starlink Shell 3 1609",
        "Satellite Number": 1609,
        "Semi-Major Axis(m)": 6938478.169268562,
        "Time(s)": 160
    },
    {
        "Altitude(m)": 565714.820280448,
        "Argument of Periapsis(deg)": -0.00674129356685142,
        "Eccentricity": 0.0,
        "Inclination(deg)": 97.0,
        "Latitude(deg)": 14.061267923142534,
        "Longitude(deg)": 81.07486678271042,
        "Mean Anomaly(deg)": 165.80549536098576,
        "RAAN(deg)": 0.001773682658152335,
        "Satellite Name": "Starlink Shell 3 1609",
        "Satellite Number": 1609,
        "Semi-Major Axis(m)": 6938478.169268562,
        "Time(s)": 170
    },
    {
        "Altitude(m)": 565702.5390085069,
        "Argument of Periapsis(deg)": -0.007137840247254445,
        "Eccentricity": 0.0,
        "Inclination(deg)": 97.0,
        "Latitude(deg)": 13.437284168363076,
        "Longitude(deg)": 80.95239494251062,
        "Mean Anomaly(deg)": 166.4309715586908,
        "RAAN(deg)": 0.0018780169321612958,
        "Satellite Name": "Starlink Shell 3 1609",
        "Satellite Number": 1609,
        "Semi-Major Axis(m)": 6938478.169268562,
        "Time(s)": 180
    }
]